[{"OBJECT_NAME":"OBJECT AD","OBJECT_ID":"2023-085AD","EPOCH":"2026-03-09T21:41:29.115744","MEAN_MOTION":15.31779154,"ECCENTRICITY":0.00101154,"INCLINATION":97.4841,"RA_OF_ASC_NODE":180.2223,"ARG_OF_PERICENTER":77.5993,"MEAN_ANOMALY":282.638,"EPHEMERIS_TYPE":0,"CLASSIFICATION_TYPE":"U","NORAD_CAT_ID":57031,"ELEMENT_SET_NO":999,"REV_AT_EPOCH":15156,"BSTAR":0.00068352515,"MEAN_MOTION_DOT":0.00020961,"MEAN_MOTION_DDOT":0},{"OBJECT_NAME":"STARLINK-32305","OBJECT_ID":"2024-183Q","EPOCH":"2026-03-09T10:40:02.657280","MEAN_MOTION":15.30188562,"ECCENTRICITY":8.162e-5,"INCLINATION":53.1597,"RA_OF_ASC_NODE":143.667,"ARG_OF_PERICENTER":111.3915,"MEAN_ANOMALY":248.7173,"EPHEMERIS_TYPE":0,"CLASSIFICATION_TYPE":"U","NORAD_CAT_ID":61523,"ELEMENT_SET_NO":999,"REV_AT_EPOCH":7961,"BSTAR":1.2922894e-5,"MEAN_MOTION_DOT":2.4e-7,"MEAN_MOTION_DDOT":0}]
